06-May-2022 (06:00:01.774712)
FARADAY_PHOENIX
1 48924U 21059AX  22125.85446725  .00005084  00000+0  27786-3 0  9996
2 48924  97.5489 256.1371 0017207 241.0938 239.4167 15.14624027 47500
07-May-2022 (06:00:01.801274)
FARADAY_PHOENIX
1 48924U 21059AX  22126.85266940  .00004521  00000+0  24748-3 0  9996
2 48924  97.5492 257.1276 0017157 237.9017 281.9917 15.14629641 47653
08-May-2022 (06:00:01.782458)
FARADAY_PHOENIX
1 48924U 21059AX  22127.77343796  .00004159  00000+0  22790-3 0  9995
2 48924  97.5497 258.0415 0017168 233.7274 263.6271 15.14635088 47791
09-May-2022 (06:00:01.792931)
FARADAY_PHOENIX
1 48924U 21059AX  22128.89298407  .00003873  00000+0  21244-3 0  9992
2 48924  97.5500 259.1526 0017278 229.4318 248.5922 15.14642034 47967
10-May-2022 (06:00:01.790576)
FARADAY_PHOENIX
1 48924U 21059AX  22129.82442987  .00003727  00000+0  20453-3 0  9999
2 48924  97.5499 260.0770 0017347 226.0878 287.6260 15.14648022 48106
11-May-2022 (06:00:02.006328)
FARADAY_PHOENIX
1 48924U 21059AX  22130.87142512  .00003627  00000+0  19911-3 0  9993
2 48924  97.5496 261.1164 0017412 222.3265 236.7657 15.14655165 48262
12-May-2022 (06:00:02.230506)
FARADAY_PHOENIX
1 48924U 21059AX  22131.80714081  .00003556  00000+0  19527-3 0  9997
2 48924  97.5500 262.0457 0017422 218.9843 299.1154 15.14661520 48400
13-May-2022 (06:00:02.256885)
FARADAY_PHOENIX
1 48924U 21059AX  22132.91881160  .00003594  00000+0  19724-3 0  9994
2 48924  97.5499 263.1494 0017521 215.0910 240.8833 15.14669837 48577
14-May-2022 (06:00:02.270410)
FARADAY_PHOENIX
1 48924U 21059AX  22133.85387439  .00003733  00000+0  20467-3 0  9999
2 48924  97.5502 264.0780 0017556 211.7993 299.6847 15.14677858 48717
15-May-2022 (06:00:02.236666)
FARADAY_PHOENIX
1 48924U 21059AX  22134.77626223  .00003815  00000+0  20903-3 0  9994
2 48924  97.5503 264.9940 0017615 208.4921 289.4543 15.14685519 48853
16-May-2022 (06:00:02.237760)
FARADAY_PHOENIX
1 48924U 21059AX  22135.83581889  .00003986  00000+0  21818-3 0  9995
2 48924  97.5506 266.0463 0017681 204.6796 307.2558 15.14695313 49017
17-May-2022 (06:00:02.256048)
FARADAY_PHOENIX
1 48924U 21059AX  22136.75783164  .00004234  00000+0  23146-3 0  9990
2 48924  97.5508 266.9619 0017778 201.3386 295.0850 15.14704933 49150
18-May-2022 (06:00:02.320915)
FARADAY_PHOENIX
1 48924U 21059AX  22137.81818598  .00004495  00000+0  24538-3 0  9993
2 48924  97.5515 268.0153 0017955 197.3206 317.5169 15.14716124 49312
19-May-2022 (06:00:02.309665)
FARADAY_PHOENIX
1 48924U 21059AX  22138.73953495  .00004681  00000+0  25528-3 0  9998
2 48924  97.5517 268.9301 0018138 194.0513 301.7238 15.14726105 49454
20-May-2022 (06:00:01.338421)
FARADAY_PHOENIX
1 48924U 21059AX  22139.93096222  .00005410  00000+0  29428-3 0  9991
2 48924  97.5523 270.1129 0018126 189.8025 318.8005 15.14744258 49631
21-May-2022 (06:00:01.318227)
FARADAY_PHOENIX
1 48924U 21059AX  22140.85632505  .00006172  00000+0  33506-3 0  9992
2 48924  97.5523 271.0314 0018162 186.9113 324.6313 15.14760976 49770
22-May-2022 (06:00:01.342657)
FARADAY_PHOENIX
1 48924U 21059AX  22141.84712172  .00007332  00000+0  39696-3 0  9996
2 48924  97.5521 272.0151 0018535 183.4763 327.6849 15.14783197 49929
23-May-2022 (06:00:01.362501)
FARADAY_PHOENIX
1 48924U 21059AX  22142.76918874  .00008327  00000+0  45002-3 0  9998
2 48924  97.5523 272.9318 0018440 180.2899 315.9958 15.14805279 50069
24-May-2022 (06:00:01.496503)
FARADAY_PHOENIX
1 48924U 21059AX  22143.88910914  .00009419  00000+0  50808-3 0  9992
2 48924  97.5524 274.0441 0018335 176.3095 303.4692 15.14833620 50234
25-May-2022 (06:00:01.498880)
FARADAY_PHOENIX
1 48924U 21059AX  22144.81101220  .00009566  00000+0  51564-3 0  9991
2 48924  97.5526 274.9598 0018596 173.2433 290.8852 15.14851651 50375
26-May-2022 (06:00:01.375113)
FARADAY_PHOENIX
1 48924U 21059AX  22145.93220325  .00008581  00000+0  46277-3 0  9994
2 48924  97.5522 276.0717 0018770 170.0035 284.5956 15.14863486 50547
27-May-2022 (06:00:01.506337)
FARADAY_PHOENIX
1 48924U 21059AX  22146.85825501  .00007458  00000+0  40274-3 0  9996
2 48924  97.5518 276.9908 0018448 167.3115 294.2807 15.14870030 50684
28-May-2022 (06:00:01.470081)
FARADAY_PHOENIX
1 48924U 21059AX  22147.85824584  .00006305  00000+0  34103-3 0  9991
2 48924  97.5521 277.9858 0018372 163.4487 348.1417 15.14875877 50835
29-May-2022 (06:00:01.537168)
FARADAY_PHOENIX
1 48924U 21059AX  22148.91023108  .00005855  00000+0  31685-3 0  9993
2 48924  97.5524 279.0312 0018749 159.8206 325.2017 15.14885852 50995
30-May-2022 (06:00:01.437913)
FARADAY_PHOENIX
1 48924U 21059AX  22149.90665738  .00006034  00000+0  32626-3 0  9990
2 48924  97.5526 280.0208 0018781 156.4032 359.3080 15.14899294 51140
31-May-2022 (06:00:01.551060)
FARADAY_PHOENIX
1 48924U 21059AX  22150.88709251  .00006175  00000+0  33364-3 0  9994
2 48924  97.5529 280.9948 0018889 153.0267 306.2598 15.14912200 51299
06-Jun-2022 (11:50:57.914936)
FARADAY_PHOENIX
1 48924U 21059AX  22157.10948366  .00002606  00000+0  14285-3 0  9994
2 48924  97.5552 287.1780 0019393 132.5563  40.3862 15.14938306 52230
07-Jun-2022 (06:00:01.572818)
FARADAY_PHOENIX
1 48924U 21059AX  22157.89201387  .00002604  00000+0  14268-3 0  9994
2 48924  97.5551 287.9551 0019511 130.2393 347.7517 15.14942462 52353
08-Jun-2022 (06:00:01.620541)
FARADAY_PHOENIX
1 48924U 21059AX  22158.82328094  .00002564  00000+0  14054-3 0  9991
2 48924  97.5552 288.8806 0019511 127.2760  26.4406 15.14947108 52496
09-Jun-2022 (06:00:01.679294)
FARADAY_PHOENIX
1 48924U 21059AX  22159.81442921  .00002631  00000+0  14411-3 0  9999
2 48924  97.5552 289.8656 0019551 124.1225  31.7178 15.14953015 52642
10-Jun-2022 (06:00:01.557354)
FARADAY_PHOENIX
1 48924U 21059AX  22160.80565936  .00002932  00000+0  16015-3 0  9998
2 48924  97.5550 290.8502 0019617 120.9428  37.5022 15.14961057 52797
11-Jun-2022 (06:00:01.652195)
FARADAY_PHOENIX
1 48924U 21059AX  22161.85513828  .00003405  00000+0  18528-3 0  9994
2 48924  97.5546 291.8925 0019610 117.5167   1.0506 15.14971408 52959
12-Jun-2022 (06:00:01.677864)
FARADAY_PHOENIX
1 48924U 21059AX  22162.78329866  .00003729  00000+0  20254-3 0  9992
2 48924  97.5550 292.8150 0019568 114.1575  23.3179 15.14980410 53095
13-Jun-2022 (06:00:01.630746)
FARADAY_PHOENIX
1 48924U 21059AX  22163.84257604  .00003847  00000+0  20877-3 0  9992
2 48924  97.5548 293.8679 0019627 110.7695  40.2870 15.14989167 53252
14-Jun-2022 (06:00:01.691199)
FARADAY_PHOENIX
1 48924U 21059AX  22164.76450780  .00003733  00000+0  20266-3 0  9990
2 48924  97.5549 294.7840 0019689 107.8864  28.1667 15.14995204 53399
16-Jun-2022 (06:00:02.260546)
FARADAY_PHOENIX
1 48924U 21059AX  22166.81354948  .00003407  00000+0  18520-3 0  9995
2 48924  97.5551 296.8210 0019699 101.4717  42.9713 15.15007627 53709
17-Jun-2022 (06:00:02.361407)
FARADAY_PHOENIX
1 48924U 21059AX  22167.01100072  .00003362  00000+0  18280-3 0  9998
2 48924  97.5553 297.0173 0019694 100.6557  40.0078 15.15008683 53739
18-Jun-2022 (06:00:02.280974)
FARADAY_PHOENIX
1 48924U 21059AX  22167.01100072  .00003362  00000+0  18280-3 0  9998
2 48924  97.5553 297.0173 0019694 100.6557  40.0078 15.15008683 53739
19-Jun-2022 (06:00:02.424234)
FARADAY_PHOENIX
1 48924U 21059AX  22167.01100072  .00003362  00000+0  18280-3 0  9998
2 48924  97.5553 297.0173 0019694 100.6557  40.0078 15.15008683 53739
20-Jun-2022 (06:00:02.292857)
FARADAY_PHOENIX
1 48924U 21059AX  22170.90368579  .00005385  00000+0  29018-3 0  9996
2 48924  97.5566 300.8868 0019578  88.1804  30.2555 15.15057736 54323
21-Jun-2022 (06:00:01.304779)
FARADAY_PHOENIX
1 48924U 21059AX  22171.89078419  .00005755  00000+0  30973-3 0  9999
2 48924  97.5566 301.8686 0019654  85.1134  13.7855 15.15071321 54471
22-Jun-2022 (06:00:01.304007)
FARADAY_PHOENIX
1 48924U 21059AX  22172.88497100  .00005628  00000+0  30288-3 0  9999
2 48924  97.5565 302.8567 0019575  82.2451  35.7765 15.15081407 54628
23-Jun-2022 (06:00:01.335551)
FARADAY_PHOENIX
1 48924U 21059AX  22173.74682796  .00005165  00000+0  27825-3 0  9991
2 48924  97.5566 303.7120 0019491  79.9248  55.9259 15.15087049 54752
24-Jun-2022 (06:00:01.424655)
FARADAY_PHOENIX
1 48924U 21059AX  22174.86660318  .00004059  00000+0  21945-3 0  9999
2 48924  97.5564 304.8257 0019550  75.9623  43.5902 15.15089849 54929
25-Jun-2022 (06:00:01.451163)
FARADAY_PHOENIX
1 48924U 21059AX  22175.79458308  .00003715  00000+0  20115-3 0  9992
2 48924  97.5561 305.7480 0019536  72.9148  64.9263 15.15094603 55064
26-Jun-2022 (06:00:01.465651)
FARADAY_PHOENIX
1 48924U 21059AX  22176.78516351  .00003296  00000+0  17887-3 0  9991
2 48924  97.5566 306.7330 0019572  69.7530  67.6197 15.15098683 55218
27-Jun-2022 (06:00:01.395154)
FARADAY_PHOENIX
1 48924U 21059AX  22177.77772971  .00003059  00000+0  16625-3 0  9999
2 48924  97.5567 307.7200 0019597  66.5253  81.2244 15.15103363 55363
28-Jun-2022 (06:00:01.498605)
FARADAY_PHOENIX
1 48924U 21059AX  22178.89533481  .00002951  00000+0  16049-3 0  9994
2 48924  97.5570 308.8310 0019529  62.9423  56.7861 15.15109371 55531
29-Jun-2022 (06:00:01.504311)
FARADAY_PHOENIX
1 48924U 21059AX  22179.88550537  .00002796  00000+0  15223-3 0  9995
2 48924  97.5573 309.8154 0019439  59.6580  57.4288 15.15113946 55688
30-Jun-2022 (06:00:01.445240)
FARADAY_PHOENIX
1 48924U 21059AX  22180.61301505  .00002594  00000+0  14150-3 0  9991
2 48924  97.5577 310.5384 0019371  57.4009  65.3005 15.15116269 55791
01-Jul-2022 (06:00:01.502561)
FARADAY_PHOENIX
1 48924U 21059AX  22181.87427697  .00002149  00000+0  11783-3 0  9996
2 48924  97.5580 311.7932 0019257  53.1634 104.6173 15.15119039 55989
02-Jul-2022 (06:00:01.513087)
FARADAY_PHOENIX
1 48924U 21059AX  22182.79609132  .00001865  00000+0  10277-3 0  9995
2 48924  97.5585 312.7099 0019193  50.5447  92.0137 15.15120773 56125
